start=new Date('2022-11-12T00:00:00.000Z').valueOf();
sats=[{"MEAN_MOTION_DOT":"0.00016884","LAUNCH_DATE":"2022-08-12","TLE_LINE2":"2 53480  97.6546  75.0051 0000797 154.9648 205.1615 15.01279481 13863","REV_AT_EPOCH":"1386","EPOCH":"2022-11-11T20:04:04.877184","MEAN_MOTION_DDOT":"0.0000000000000","SEMIMAJOR_AXIS":"6941.087","CLASSIFICATION_TYPE":"U","REF_FRAME":"TEME","OBJECT_TYPE":"PAYLOAD","OBJECT_ID":"2022-099R","ARG_OF_PERICENTER":"154.9648","APOAPSIS":"563.505","SITE":"AFWTR","PERIAPSIS":"562.399","MEAN_MOTION":"15.01279481","TIME_SYSTEM":"UTC","FILE":"3651775","BSTAR":"0.00131530000000","GP_ID":"217494959","NORAD_CAT_ID":"53480","INCLINATION":"97.6546","DECAY_DATE":null,"COUNTRY_CODE":"US","PERIOD":"95.918","MEAN_ANOMALY":"205.1615","ELEMENT_SET_NO":"999","EPHEMERIS_TYPE":"0","CENTER_NAME":"EARTH","RA_OF_ASC_NODE":"75.0051","ECCENTRICITY":"0.00007970","RCS_SIZE":"LARGE","MEAN_ELEMENT_THEORY":"SGP4","TLE_LINE1":"1 53480U 22099R   22315.83616756  .00016884  00000-0  13153-2 0  9999","OBJECT_NAME":"STARLINK-4442"},{"TLE_LINE2":"2 53481  97.6567  75.0690 0000309   9.7749 350.3481 15.01228239 13874","REV_AT_EPOCH":"1387","MEAN_MOTION_DOT":"0.00006588","LAUNCH_DATE":"2022-08-12","OBJECT_TYPE":"PAYLOAD","OBJECT_ID":"2022-099S","ARG_OF_PERICENTER":"9.7749","APOAPSIS":"563.324","SITE":"AFWTR","EPOCH":"2022-11-11T21:32:04.181568","MEAN_MOTION_DDOT":"0.0000000000000","SEMIMAJOR_AXIS":"6941.245","CLASSIFICATION_TYPE":"U","REF_FRAME":"TEME","GP_ID":"217494240","NORAD_CAT_ID":"53481","INCLINATION":"97.6567","DECAY_DATE":null,"COUNTRY_CODE":"US","MEAN_MOTION":"15.01228239","PERIAPSIS":"562.895","TIME_SYSTEM":"UTC","BSTAR":"0.00051744000000","FILE":"3651775","RA_OF_ASC_NODE":"75.0690","ECCENTRICITY":"0.00003090","RCS_SIZE":"LARGE","TLE_LINE1":"1 53481U 22099S   22315.89727062  .00006588  00000-0  51744-3 0  9998","MEAN_ELEMENT_THEORY":"SGP4","OBJECT_NAME":"STARLINK-4302","PERIOD":"95.921","MEAN_ANOMALY":"350.3481","ELEMENT_SET_NO":"999","EPHEMERIS_TYPE":"0","CENTER_NAME":"EARTH"},{"MEAN_MOTION_DDOT":"0.0000000000000","SEMIMAJOR_AXIS":"6941.129","EPOCH":"2022-11-11T21:32:23.962848","REF_FRAME":"TEME","CLASSIFICATION_TYPE":"U","OBJECT_TYPE":"PAYLOAD","ARG_OF_PERICENTER":"358.9944","OBJECT_ID":"2022-099T","SITE":"AFWTR","APOAPSIS":"563.584","LAUNCH_DATE":"2022-08-12","MEAN_MOTION_DOT":"0.00007902","TLE_LINE2":"2 53482  97.6569  75.0678 0000850 358.9944   1.1278 15.01265805 13875","REV_AT_EPOCH":"1387","ELEMENT_SET_NO":"999","PERIOD":"95.919","MEAN_ANOMALY":"1.1278","EPHEMERIS_TYPE":"0","CENTER_NAME":"EARTH","RCS_SIZE":"LARGE","RA_OF_ASC_NODE":"75.0678","ECCENTRICITY":"0.00008500","OBJECT_NAME":"STARLINK-4360","MEAN_ELEMENT_THEORY":"SGP4","TLE_LINE1":"1 53482U 22099T   22315.89749957  .00007902  00000-0  61904-3 0  9996","MEAN_MOTION":"15.01265805","PERIAPSIS":"562.404","TIME_SYSTEM":"UTC","BSTAR":"0.00061904000000","FILE":"3651775","GP_ID":"217494821","NORAD_CAT_ID":"53482","COUNTRY_CODE":"US","INCLINATION":"97.6569","DECAY_DATE":null},{"PERIAPSIS":"561.343","MEAN_MOTION":"15.01234909","TIME_SYSTEM":"UTC","BSTAR":"0.00036868000000","FILE":"3651775","NORAD_CAT_ID":"53483","GP_ID":"217495128","DECAY_DATE":null,"INCLINATION":"97.6582","COUNTRY_CODE":"US","MEAN_ANOMALY":"343.7265","PERIOD":"95.921","ELEMENT_SET_NO":"999","EPHEMERIS_TYPE":"0","CENTER_NAME":"EARTH","ECCENTRICITY":"0.00025160","RA_OF_ASC_NODE":"75.0827","RCS_SIZE":"LARGE","TLE_LINE1":"1 53483U 22099U   22315.89197029  .00004677  00000-0  36868-3 0  9991","MEAN_ELEMENT_THEORY":"SGP4","OBJECT_NAME":"STARLINK-4401","MEAN_MOTION_DOT":"0.00004677","LAUNCH_DATE":"2022-08-12","TLE_LINE2":"2 53483  97.6582  75.0827 0002516  16.4040 343.7265 15.01234909 13873","REV_AT_EPOCH":"1387","EPOCH":"2022-11-11T21:24:26.233056","SEMIMAJOR_AXIS":"6941.224","MEAN_MOTION_DDOT":"0.0000000000000","CLASSIFICATION_TYPE":"U","REF_FRAME":"TEME","ARG_OF_PERICENTER":"16.4040","OBJECT_ID":"2022-099U","OBJECT_TYPE":"PAYLOAD","APOAPSIS":"564.836","SITE":"AFWTR"},{"OBJECT_NAME":"STARLINK-4426","MEAN_ELEMENT_THEORY":"SGP4","TLE_LINE1":"1 53484U 22099V   22315.89540410  .00001897  00000-0  15226-3 0  9994","RCS_SIZE":"LARGE","RA_OF_ASC_NODE":"75.0773","ECCENTRICITY":"0.00015940","CENTER_NAME":"EARTH","EPHEMERIS_TYPE":"0","ELEMENT_SET_NO":"999","MEAN_ANOMALY":"328.1468","PERIOD":"95.919","COUNTRY_CODE":"US","DECAY_DATE":null,"INCLINATION":"97.6598","NORAD_CAT_ID":"53484","GP_ID":"217495215","FILE":"3651775","BSTAR":"0.00015226000000","MEAN_MOTION":"15.01262477","PERIAPSIS":"561.898","TIME_SYSTEM":"UTC","SITE":"AFWTR","APOAPSIS":"564.111","ARG_OF_PERICENTER":"31.9852","OBJECT_ID":"2022-099V","OBJECT_TYPE":"PAYLOAD","REF_FRAME":"TEME","CLASSIFICATION_TYPE":"U","SEMIMAJOR_AXIS":"6941.139","MEAN_MOTION_DDOT":"0.0000000000000","EPOCH":"2022-11-11T21:29:22.914240","REV_AT_EPOCH":"1387","TLE_LINE2":"2 53484  97.6598  75.0773 0001594  31.9852 328.1468 15.01262477 13872","LAUNCH_DATE":"2022-08-12","MEAN_MOTION_DOT":"0.00001897"},{"MEAN_ELEMENT_THEORY":"SGP4","TLE_LINE1":"1 53485U 22099W   22315.88985460  .00008498  00000-0  66526-3 0  9995","OBJECT_NAME":"STARLINK-4430","RA_OF_ASC_NODE":"75.0826","ECCENTRICITY":"0.00026260","RCS_SIZE":"LARGE","CENTER_NAME":"EARTH","EPHEMERIS_TYPE":"0","MEAN_ANOMALY":"350.2636","PERIOD":"95.919","ELEMENT_SET_NO":"999","INCLINATION":"97.6582","DECAY_DATE":null,"COUNTRY_CODE":"US","NORAD_CAT_ID":"53485","GP_ID":"217494657","BSTAR":"0.00066526000000","FILE":"3651775","MEAN_MOTION":"15.01268704","PERIAPSIS":"561.162","TIME_SYSTEM":"UTC","APOAPSIS":"564.808","SITE":"AFWTR","ARG_OF_PERICENTER":"9.8639","OBJECT_ID":"2022-099W","OBJECT_TYPE":"PAYLOAD","CLASSIFICATION_TYPE":"U","REF_FRAME":"TEME","EPOCH":"2022-11-11T21:21:23.437440","SEMIMAJOR_AXIS":"6941.120","MEAN_MOTION_DDOT":"0.0000000000000","REV_AT_EPOCH":"1387","TLE_LINE2":"2 53485  97.6582  75.0826 0002626   9.8639 350.2636 15.01268704 13871","MEAN_MOTION_DOT":"0.00008498","LAUNCH_DATE":"2022-08-12"},{"REF_FRAME":"TEME","CLASSIFICATION_TYPE":"U","MEAN_MOTION_DDOT":"0.0000000000000","SEMIMAJOR_AXIS":"6941.108","EPOCH":"2022-11-11T21:26:43.786176","SITE":"AFWTR","APOAPSIS":"565.375","OBJECT_TYPE":"PAYLOAD","ARG_OF_PERICENTER":"29.5428","OBJECT_ID":"2022-099X","LAUNCH_DATE":"2022-08-12","MEAN_MOTION_DOT":"0.00007710","REV_AT_EPOCH":"1387","TLE_LINE2":"2 53486  97.6576  75.0802 0003460  29.5428 330.5991 15.01272585 13878","EPHEMERIS_TYPE":"0","CENTER_NAME":"EARTH","ELEMENT_SET_NO":"999","PERIOD":"95.919","MEAN_ANOMALY":"330.5991","OBJECT_NAME":"STARLINK-4431","MEAN_ELEMENT_THEORY":"SGP4","TLE_LINE1":"1 53486U 22099X   22315.89356234  .00007710  00000-0  60394-3 0  9991","RCS_SIZE":"LARGE","RA_OF_ASC_NODE":"75.0802","ECCENTRICITY":"0.00034600","BSTAR":"0.00060394000000","FILE":"3651775","MEAN_MOTION":"15.01272585","PERIAPSIS":"560.571","TIME_SYSTEM":"UTC","COUNTRY_CODE":"US","DECAY_DATE":null,"INCLINATION":"97.6576","GP_ID":"217494405","NORAD_CAT_ID":"53486"},{"FILE":"3651775","BSTAR":"0.00013144000000","PERIAPSIS":"560.728","TIME_SYSTEM":"UTC","MEAN_MOTION":"15.01253680","COUNTRY_CODE":"US","INCLINATION":"97.6574","DECAY_DATE":null,"NORAD_CAT_ID":"53487","GP_ID":"217495384","EPHEMERIS_TYPE":"0","CENTER_NAME":"EARTH","ELEMENT_SET_NO":"999","MEAN_ANOMALY":"339.9710","PERIOD":"95.920","OBJECT_NAME":"STARLINK-4432","MEAN_ELEMENT_THEORY":"SGP4","TLE_LINE1":"1 53487U 22099Y   22315.88615106  .00001629  00000-0  13144-3 0  9991","RCS_SIZE":"LARGE","RA_OF_ASC_NODE":"75.0816","ECCENTRICITY":"0.00033180","LAUNCH_DATE":"2022-08-12","MEAN_MOTION_DOT":"0.00001629","REV_AT_EPOCH":"1387","TLE_LINE2":"2 53487  97.6574  75.0816 0003318  20.1644 339.9710 15.01253680 13878","REF_FRAME":"TEME","CLASSIFICATION_TYPE":"U","SEMIMAJOR_AXIS":"6941.166","MEAN_MOTION_DDOT":"0.0000000000000","EPOCH":"2022-11-11T21:16:03.451584","SITE":"AFWTR","APOAPSIS":"565.334","OBJECT_ID":"2022-099Y","ARG_OF_PERICENTER":"20.1644","OBJECT_TYPE":"PAYLOAD"},{"RA_OF_ASC_NODE":"75.0812","ECCENTRICITY":"0.00022900","RCS_SIZE":"LARGE","TLE_LINE1":"1 53488U 22099Z   22315.89171279  .00004091  00000-0  32302-3 0  9994","MEAN_ELEMENT_THEORY":"SGP4","OBJECT_NAME":"STARLINK-4421","MEAN_ANOMALY":"347.1051","PERIOD":"95.920","ELEMENT_SET_NO":"999","CENTER_NAME":"EARTH","EPHEMERIS_TYPE":"0","NORAD_CAT_ID":"53488","GP_ID":"217494960","DECAY_DATE":null,"INCLINATION":"97.6586","COUNTRY_CODE":"US","MEAN_MOTION":"15.01245471","PERIAPSIS":"561.467","TIME_SYSTEM":"UTC","BSTAR":"0.00032302000000","FILE":"3651775","ARG_OF_PERICENTER":"13.0232","OBJECT_ID":"2022-099Z","OBJECT_TYPE":"PAYLOAD","APOAPSIS":"564.646","SITE":"AFWTR","EPOCH":"2022-11-11T21:24:03.985056","SEMIMAJOR_AXIS":"6941.192","MEAN_MOTION_DDOT":"0.0000000000000","CLASSIFICATION_TYPE":"U","REF_FRAME":"TEME","TLE_LINE2":"2 53488  97.6586  75.0812 0002290  13.0232 347.1051 15.01245471 13878","REV_AT_EPOCH":"1387","MEAN_MOTION_DOT":"0.00004091","LAUNCH_DATE":"2022-08-12"},{"MEAN_MOTION_DDOT":"0.0000000000000","SEMIMAJOR_AXIS":"6941.086","EPOCH":"2022-11-11T21:13:24.152448","REF_FRAME":"TEME","CLASSIFICATION_TYPE":"U","OBJECT_TYPE":"PAYLOAD","ARG_OF_PERICENTER":"19.2169","OBJECT_ID":"2022-099AA","SITE":"AFWTR","APOAPSIS":"565.403","LAUNCH_DATE":"2022-08-12","MEAN_MOTION_DOT":"0.00017320","TLE_LINE2":"2 53489  97.6577  75.0825 0003533  19.2169 340.9188 15.01279676 13877","REV_AT_EPOCH":"1387","ELEMENT_SET_NO":"999","PERIOD":"95.918","MEAN_ANOMALY":"340.9188","EPHEMERIS_TYPE":"0","CENTER_NAME":"EARTH","RCS_SIZE":"LARGE","RA_OF_ASC_NODE":"75.0825","ECCENTRICITY":"0.00035330","OBJECT_NAME":"STARLINK-4392","TLE_LINE1":"1 53489U 22099AA  22315.88430732  .00017320  00000-0  13489-2 0  9999","MEAN_ELEMENT_THEORY":"SGP4","PERIAPSIS":"560.499","TIME_SYSTEM":"UTC","MEAN_MOTION":"15.01279676","BSTAR":"0.00134890000000","FILE":"3651775","GP_ID":"217494241","NORAD_CAT_ID":"53489","COUNTRY_CODE":"US","INCLINATION":"97.6577","DECAY_DATE":null}];
